COMMENT,ORIGINATOR,NORAD_CAT_ID,OBJECT_NAME,OBJECT_TYPE,CLASSIFICATION_TYPE,INTLDES,EPOCH,EPOCH_MICROSECONDS,MEAN_MOTION,ECCENTRICITY,INCLINATION,RA_OF_ASC_NODE,ARG_OF_PERICENTER,MEAN_ANOMALY,EPHEMERIS_TYPE,ELEMENT_SET_NO,REV_AT_EPOCH,BSTAR,MEAN_MOTION_DOT,MEAN_MOTION_DDOT,FILE,TLE_LINE0,TLE_LINE1,TLE_LINE2,OBJECT_ID,OBJECT_NUMBER,SEMIMAJOR_AXIS,PERIOD,APOGEE,PERIGEE
"GENERATED VIA SPACETRACK.ORG API","JSPOC","22079","ARIANE 42P R/B","ROCKET BODY","U","92052D","2016-01-08 22:11:44","970720","12.77839665","0.0074619","66.0659","253.3107","234.5782","192.4374","0","999","9227","0.00026513","-1e-08","0","1978186","0 ARIANE 42P R/B","1 22079U 92052D   16008.92482605 -.00000001 +00000-0 +26513-3 0  9991","2 22079 066.0659 253.3107 0074619 234.5782 192.4374 12.77839665092277","1992-052D","22079","7728.305","112.690","1407.838","1292.502"
"GENERATED VIA SPACETRACK.ORG API","JSPOC","39189","O3B FM4","PAYLOAD","U","13031B","2016-01-08 22:11:47","280192","5.00116499","0.0004796","0.0313","342.9613","11.6958","5.3371","0","999","4639","0","-1.5e-07","0","1978008","0 O3B FM4","1 39189U 13031B   16008.92485278 -.00000015  00000-0  00000+0 0  9994","2 39189   0.0313 342.9613 0004796  11.6958   5.3371  5.00116499 46399","2013-031B","39189","14444.007","287.932","8072.800","8058.945"
"GENERATED VIA SPACETRACK.ORG API","JSPOC","4327","SERT 2","PAYLOAD","U","70009A","2016-01-08 22:11:48","234912","13.58404127","0.0004099","99.2923","124.0342","307.6878","187.7795","0","999","27576","0.0002354","1.3e-06","0","1978186","0 SERT 2","1  4327U 70009A   16008.92486383 +.00000130 +00000-0 +23540-3 0  9991","2  4327 099.2923 124.0342 0004099 307.6878 187.7795 13.58404127275765","1970-009A","4327","7419.634","106.006","1044.540","1038.458"
"GENERATED VIA SPACETRACK.ORG API","JSPOC","14616","COSMOS 1527","PAYLOAD","U","84001F","2016-01-08 22:11:48","710976","12.51050606","0.0001231","74.0103","310.8929","149.7338","311.5604","0","999","5067","-6.1474e-05","-2.5e-07","0","1978186","0 COSMOS 1527","1 14616U 84001F   16008.92486934 -.00000025 +00000-0 -61474-4 0  9996","2 14616 074.0103 310.8929 0001231 149.7338 311.5604 12.51050606050673","1984-001F","14616","7838.240","115.103","1461.070","1459.140"
"GENERATED VIA SPACETRACK.ORG API","JSPOC","21034","SL-14 R/B","ROCKET BODY","U","90114G","2016-01-08 22:11:55","421664","12.55507267","0.0038608","82.5646","216.5679","264.6689","223.5484","0","999","14777","-2.564e-05","6e-08","0","1978186","0 SL-14 R/B","1 21034U 90114G   16008.92494701 +.00000006 +00000-0 -25640-4 0  9994","2 21034 082.5646 216.5679 0038608 264.6689 223.5484 12.55507267147779","1990-114G","21034","7819.680","114.694","1471.735","1411.355"
"GENERATED VIA SPACETRACK.ORG API","JSPOC","1506","SECOR 5 (EGRS 5)","PAYLOAD","U","65063A","2016-01-08 22:11:57","915168","11.78616814","0.0792224","69.2321","252.5442","309.7545","165.3916","0","999","16901","0.00014102","-1.4e-07","0","1978186","0 SECOR 5 (EGRS 5)","1  1506U 65063A   16008.92497587 -.00000014 +00000-0 +14102-3 0  9995","2  1506 069.2321 252.5442 0792224 309.7545 165.3916 11.78616814169011","1965-063A","1506","8156.179","122.177","2424.196","1131.892"
"GENERATED VIA SPACETRACK.ORG API","JSPOC","22877","NAVSTAR 35 (USA 96)","PAYLOAD","U","93068A","2016-01-08 22:12:03","520800","2.00568741","0.0118951","53.9359","120.1643","64.0744","122.6674","0","999","16267","0","-9e-08","0","1978186","0 NAVSTAR 35 (USA 96)","1 22877U 93068A   16008.92504075 -.00000009 +00000-0 +00000-0 0  9999","2 22877 053.9359 120.1643 0118951 064.0744 122.6674 02.00568741162672","1993-068A","22877","26559.894","717.958","20497.691","19865.826"
"GENERATED VIA SPACETRACK.ORG API","JSPOC","25624","GLOBALSTAR M038","PAYLOAD","U","99004D","2016-01-08 22:12:13","774752","12.32412667","0.0002558","51.998","277.9762","47.9268","76.6634","0","999","77730","0.00034573","-5.3e-07","0","1978186","0 GLOBALSTAR M038","1 25624U 99004D   16008.92515943 -.00000053 +00000-0 +34573-3 0  9998","2 25624 051.9980 277.9762 0002558 047.9268 076.6634 12.32412667777309","1999-004D","25624","7917.068","116.843","1540.958","1536.908"
"GENERATED VIA SPACETRACK.ORG API","JSPOC","3522","THOR BURNER 2 R/B","ROCKET BODY","U","68092B","2016-01-08 22:12:16","810848","14.29344569","0.0028965","98.2985","173.3289","215.0682","144.8595","0","999","45550","4.0094e-05","6.1e-07","0","1978186","0 THOR BURNER 2 R/B","1  3522U 68092B   16008.92519457 +.00000061 +00000-0 +40094-4 0  9992","2  3522 098.2985 173.3289 0028965 215.0682 144.8595 14.29344569455504","1968-092B","3522","7172.059","100.745","814.698","773.150"
"GENERATED VIA SPACETRACK.ORG API","JSPOC","27855","BLOCK DM-SL R/B","ROCKET BODY","U","03034B","2016-01-08 22:12:19","86624","2.24647045","0.7151873","0.7268","325.6319","307.4673","272.7072","0","999","10199","-0.00080235","-1.6e-06","0","1978186","0 BLOCK DM-SL R/B","1 27855U 03034B   16008.92522091 -.00000160 +00000-0 -80235-3 0  9992","2 27855 000.7268 325.6319 7151873 307.4673 272.7072 02.24647045101994","2003-034B","27855","24626.424","641.005","35860.796","635.783"
"GENERATED VIA SPACETRACK.ORG API","JSPOC","10954","DELTA 1 R/B(1)","ROCKET BODY","U","78062B","2016-01-08 22:12:21","37536","13.50642366","0.0699504","28.4256","251.0917","78.9719","288.865","0","999","84532","0.00013592","5.27e-06","0","1978186","0 DELTA 1 R/B(1)","1 10954U 78062B   16008.92524349 +.00000527 +00000-0 +13592-3 0  9992","2 10954 028.4256 251.0917 0699504 078.9719 288.8650 13.50642366845322","1978-062B","10954","7448.033","106.615","1590.890","548.905"
"GENERATED VIA SPACETRACK.ORG API","JSPOC","17071","SCOUT G-1 R/B","ROCKET BODY","U","86088B","2016-01-08 22:12:21","694176","13.75015248","0.0036285","89.5371","345.0071","233.3103","155.2096","0","999","46191","3.5719e-05","4.5e-07","0","1978186","0 SCOUT G-1 R/B","1 17071U 86088B   16008.92525109 +.00000045 +00000-0 +35719-4 0  9992","2 17071 089.5371 345.0071 0036285 233.3103 155.2096 13.75015248461915","1986-088B","17071","7359.757","104.726","1008.327","954.917"
"GENERATED VIA SPACETRACK.ORG API","JSPOC","10934","COSMOS 1017","PAYLOAD","U","78056E","2016-01-08 22:12:22","135680","12.47559825","0.0020958","74.027","72.9736","143.7676","326.7097","0","999","71181","0.00011313","1e-08","0","1978186","0 COSMOS 1017","1 10934U 78056E   16008.92525620 +.00000001 +00000-0 +11313-3 0  9992","2 10934 074.0270 072.9736 0020958 143.7676 326.7097 12.47559825711811","1978-056E","10934","7852.855","115.425","1491.178","1458.262"
"GENERATED VIA SPACETRACK.ORG API","JSPOC","14175","COSMOS 1477","PAYLOAD","U","83069E","2016-01-08 22:12:22","234176","12.50404159","0.0001847","74.0268","346.1168","167.0244","222.8026","0","999","48405","-7.1441e-05","-2.7e-07","0","1978186","0 COSMOS 1477","1 14175U 83069E   16008.92525734 -.00000027 +00000-0 -71441-4 0  9998","2 14175 074.0268 346.1168 0001847 167.0244 222.8026 12.50404159484054","1983-069E","14175","7840.941","115.162","1464.255","1461.358"
"GENERATED VIA SPACETRACK.ORG API","JSPOC","32264","GLOBALSTAR M070","PAYLOAD","U","07048B","2016-01-08 22:12:22","516704","12.62265862","0.0001848","51.9729","189.6214","90.7405","62.2693","0","999","37850","-5.7553e-06","-1.05e-06","0","1978186","0 GLOBALSTAR M070","1 32264U 07048B   16008.92526061 -.00000105 +00000-0 -57553-5 0  9990","2 32264 051.9729 189.6214 0001848 090.7405 062.2693 12.62265862378500","2007-048B","32264","7791.742","114.080","1415.047","1412.168"
"GENERATED VIA SPACETRACK.ORG API","JSPOC","893","THOR ABLESTAR R/B","ROCKET BODY","U","64063A","2016-01-08 22:12:29","115936","13.56078267","0.0024793","90.1372","6.7753","191.3378","225.6962","0","999","53533","2.7504e-05","2.8e-07","0","1978186","0 THOR ABLESTAR R/B","1   893U 64063A   16008.92533699 +.00000028 +00000-0 +27504-4 0  9992","2   893 090.1372 006.7753 0024793 191.3378 225.6962 13.56078267535335","1964-063A","893","7428.115","106.188","1068.397","1031.564"
"GENERATED VIA SPACETRACK.ORG API","JSPOC","26369","EUTE 36A (EUTE W4)","PAYLOAD","U","00028A","2016-01-08 22:12:32","667840","1.00273553","0.0004552","0.0645","12.3463","280.604","184.1759","0","999","5721","0","1.62e-06","0","1978186","0 EUTE 36A (EUTE W4)","1 26369U 00028A   16008.92537810 +.00000162 +00000-0 +00000-0 0  9995","2 26369 000.0645 012.3463 0004552 280.6040 184.1759 01.00273553057214","2000-028A","26369","42164.236","1436.071","35805.294","35766.908"
"GENERATED VIA SPACETRACK.ORG API","JSPOC","11299","COSMOS 1084","PAYLOAD","U","79024D","2016-01-08 22:12:45","332352","12.50437462","9.18e-05","74.0345","348.419","96.8617","291.6661","0","999","68061","-5.8055e-05","-2.5e-07","0","1978186","0 COSMOS 1084","1 11299U 79024D   16008.92552468 -.00000025 +00000-0 -58055-4 0  9996","2 11299 074.0345 348.4190 0000918 096.8617 291.6661 12.50437462680617","1979-024D","11299","7840.802","115.159","1463.387","1461.947"
"GENERATED VIA SPACETRACK.ORG API","JSPOC","32952","BLOCK DM-SL R/B","ROCKET BODY","U","08024B","2016-01-08 22:12:45","667584","2.1462177","0.6543865","0.3013","285.2018","0.1817","220.7562","0","999","5980","0","-1.43e-06","0","1978186","0 BLOCK DM-SL R/B","1 32952U 08024B   16008.92552856 -.00000143 +00000-0 +00000-0 0  9991","2 32952 000.3013 285.2018 6543865 000.1817 220.7562 02.14621770059806","2008-024B","32952","25387.464","670.947","35622.543","2396.115"
"GENERATED VIA SPACETRACK.ORG API","JSPOC","36101","EUTE 36B (EUTE W7)","PAYLOAD","U","09065A","2016-01-08 22:12:45","667584","1.00272494","0.0004404","0.0617","9.3591","283.2281","184.4013","0","999","2252","0","1.62e-06","0","1978186","0 EUTE 36B (EUTE W7)","1 36101U 09065A   16008.92552856 +.00000162 +00000-0 +00000-0 0  9997","2 36101 000.0617 009.3591 0004404 283.2281 184.4013 01.00272494022523","2009-065A","36101","42164.533","1436.086","35804.967","35767.828"
